CCSDS_OMM_VERS = 2.0
CREATION_DATE  = 
ORIGINATOR     = 

OBJECT_NAME    = STARLINK-35628
OBJECT_ID      = 2025-237K
CENTER_NAME    = EARTH
REF_FRAME      = TEME
TIME_SYSTEM    = UTC
MEAN_ELEMENT_THEORY = SGP/SGP4

EPOCH          = 2025-11-04T12:00:02.998944
MEAN_MOTION    = 15.74168044
ECCENTRICITY   = .0001041
INCLINATION    = 53.1530
RA_OF_ASC_NODE = 269.5908
ARG_OF_PERICENTER = 113.0081
MEAN_ANOMALY   = 274.1930

EPHEMERIS_TYPE = 0
CLASSIFICATION_TYPE = U
NORAD_CAT_ID   = 66123
ELEMENT_SET_NO = 999
REV_AT_EPOCH   = 333
BSTAR          = .46864E-4
MEAN_MOTION_DOT = .6233E-4
MEAN_MOTION_DDOT = 0

CCSDS_OMM_VERS = 2.0
CREATION_DATE  = 
ORIGINATOR     = 

OBJECT_NAME    = STARLINK-35645
OBJECT_ID      = 2025-237L
CENTER_NAME    = EARTH
REF_FRAME      = TEME
TIME_SYSTEM    = UTC
MEAN_ELEMENT_THEORY = SGP/SGP4

EPOCH          = 2025-11-04T12:00:02.998944
MEAN_MOTION    = 15.74174016
ECCENTRICITY   = .0000935
INCLINATION    = 53.1533
RA_OF_ASC_NODE = 269.5865
ARG_OF_PERICENTER = 84.1615
MEAN_ANOMALY   = 304.9604

EPHEMERIS_TYPE = 0
CLASSIFICATION_TYPE = U
NORAD_CAT_ID   = 66124
ELEMENT_SET_NO = 999
REV_AT_EPOCH   = 333
BSTAR          = .31168E-4
MEAN_MOTION_DOT = .3935E-4
MEAN_MOTION_DDOT = 0

CCSDS_OMM_VERS = 2.0
CREATION_DATE  = 
ORIGINATOR     = 

OBJECT_NAME    = STARLINK-35649
OBJECT_ID      = 2025-237M
CENTER_NAME    = EARTH
REF_FRAME      = TEME
TIME_SYSTEM    = UTC
MEAN_ELEMENT_THEORY = SGP/SGP4

EPOCH          = 2025-11-04T12:00:02.998944
MEAN_MOTION    = 15.74160675
ECCENTRICITY   = .0001417
INCLINATION    = 53.1529
RA_OF_ASC_NODE = 269.5828
ARG_OF_PERICENTER = 92.7075
MEAN_ANOMALY   = 298.3318

EPHEMERIS_TYPE = 0
CLASSIFICATION_TYPE = U
NORAD_CAT_ID   = 66125
ELEMENT_SET_NO = 999
REV_AT_EPOCH   = 333
BSTAR          = .17789E-3
MEAN_MOTION_DOT = .2547E-3
MEAN_MOTION_DDOT = 0

CCSDS_OMM_VERS = 2.0
CREATION_DATE  = 
ORIGINATOR     = 

OBJECT_NAME    = STARLINK-35658
OBJECT_ID      = 2025-237N
CENTER_NAME    = EARTH
REF_FRAME      = TEME
TIME_SYSTEM    = UTC
MEAN_ELEMENT_THEORY = SGP/SGP4

EPOCH          = 2025-11-04T12:00:02.998944
MEAN_MOTION    = 15.74164070
ECCENTRICITY   = .0001241
INCLINATION    = 53.1528
RA_OF_ASC_NODE = 269.5776
ARG_OF_PERICENTER = 88.2733
MEAN_ANOMALY   = 304.6845

EPHEMERIS_TYPE = 0
CLASSIFICATION_TYPE = U
NORAD_CAT_ID   = 66126
ELEMENT_SET_NO = 999
REV_AT_EPOCH   = 333
BSTAR          = .78338E-4
MEAN_MOTION_DOT = .10846E-3
MEAN_MOTION_DDOT = 0

CCSDS_OMM_VERS = 2.0
CREATION_DATE  = 
ORIGINATOR     = 

OBJECT_NAME    = STARLINK-35629
OBJECT_ID      = 2025-237P
CENTER_NAME    = EARTH
REF_FRAME      = TEME
TIME_SYSTEM    = UTC
MEAN_ELEMENT_THEORY = SGP/SGP4

EPOCH          = 2025-11-04T12:00:02.998944
MEAN_MOTION    = 15.74146464
ECCENTRICITY   = .0000475
INCLINATION    = 53.1534
RA_OF_ASC_NODE = 269.5743
ARG_OF_PERICENTER = 70.1070
MEAN_ANOMALY   = 324.7561

EPHEMERIS_TYPE = 0
CLASSIFICATION_TYPE = U
NORAD_CAT_ID   = 66127
ELEMENT_SET_NO = 999
REV_AT_EPOCH   = 333
BSTAR          = .50434E-3
MEAN_MOTION_DOT = .73745E-3
MEAN_MOTION_DDOT = 0

CCSDS_OMM_VERS = 2.0
CREATION_DATE  = 
ORIGINATOR     = 

OBJECT_NAME    = STARLINK-35612
OBJECT_ID      = 2025-237Q
CENTER_NAME    = EARTH
REF_FRAME      = TEME
TIME_SYSTEM    = UTC
MEAN_ELEMENT_THEORY = SGP/SGP4

EPOCH          = 2025-11-04T12:00:02.998944
MEAN_MOTION    = 15.74172629
ECCENTRICITY   = .0000755
INCLINATION    = 53.1532
RA_OF_ASC_NODE = 269.5703
ARG_OF_PERICENTER = 102.4880
MEAN_ANOMALY   = 294.2960

EPHEMERIS_TYPE = 0
CLASSIFICATION_TYPE = U
NORAD_CAT_ID   = 66128
ELEMENT_SET_NO = 999
REV_AT_EPOCH   = 333
BSTAR          = .8393E-4
MEAN_MOTION_DOT = .11671E-3
MEAN_MOTION_DDOT = 0

CCSDS_OMM_VERS = 2.0
CREATION_DATE  = 
ORIGINATOR     = 

OBJECT_NAME    = STARLINK-35632
OBJECT_ID      = 2025-237R
CENTER_NAME    = EARTH
REF_FRAME      = TEME
TIME_SYSTEM    = UTC
MEAN_ELEMENT_THEORY = SGP/SGP4

EPOCH          = 2025-11-04T12:00:02.998944
MEAN_MOTION    = 15.74152948
ECCENTRICITY   = .0001144
INCLINATION    = 53.1530
RA_OF_ASC_NODE = 269.5659
ARG_OF_PERICENTER = 88.8187
MEAN_ANOMALY   = 309.8791

EPHEMERIS_TYPE = 0
CLASSIFICATION_TYPE = U
NORAD_CAT_ID   = 66129
ELEMENT_SET_NO = 999
REV_AT_EPOCH   = 333
BSTAR          = .39539E-3
MEAN_MOTION_DOT = .57582E-3
MEAN_MOTION_DDOT = 0

CCSDS_OMM_VERS = 2.0
CREATION_DATE  = 
ORIGINATOR     = 

OBJECT_NAME    = STARLINK-35637
OBJECT_ID      = 2025-237S
CENTER_NAME    = EARTH
REF_FRAME      = TEME
TIME_SYSTEM    = UTC
MEAN_ELEMENT_THEORY = SGP/SGP4

EPOCH          = 2025-11-04T12:00:02.998944
MEAN_MOTION    = 15.74113604
ECCENTRICITY   = .0001428
INCLINATION    = 53.1532
RA_OF_ASC_NODE = 269.5619
ARG_OF_PERICENTER = 123.5457
MEAN_ANOMALY   = 277.0368

EPHEMERIS_TYPE = 0
CLASSIFICATION_TYPE = U
NORAD_CAT_ID   = 66130
ELEMENT_SET_NO = 999
REV_AT_EPOCH   = 333
BSTAR          = .86594E-3
MEAN_MOTION_DOT = .127712E-2
MEAN_MOTION_DDOT = 0

CCSDS_OMM_VERS = 2.0
CREATION_DATE  = 
ORIGINATOR     = 

OBJECT_NAME    = STARLINK-35630
OBJECT_ID      = 2025-237T
CENTER_NAME    = EARTH
REF_FRAME      = TEME
TIME_SYSTEM    = UTC
MEAN_ELEMENT_THEORY = SGP/SGP4

EPOCH          = 2025-11-04T12:00:02.998944
MEAN_MOTION    = 15.74173529
ECCENTRICITY   = .0001318
INCLINATION    = 53.1531
RA_OF_ASC_NODE = 269.5579
ARG_OF_PERICENTER = 107.2512
MEAN_ANOMALY   = 295.2728

EPHEMERIS_TYPE = 0
CLASSIFICATION_TYPE = U
NORAD_CAT_ID   = 66131
ELEMENT_SET_NO = 999
REV_AT_EPOCH   = 333
BSTAR          = .17857E-3
MEAN_MOTION_DOT = .25585E-3
MEAN_MOTION_DDOT = 0

CCSDS_OMM_VERS = 2.0
CREATION_DATE  = 
ORIGINATOR     = 

OBJECT_NAME    = STARLINK-34412
OBJECT_ID      = 2025-237U
CENTER_NAME    = EARTH
REF_FRAME      = TEME
TIME_SYSTEM    = UTC
MEAN_ELEMENT_THEORY = SGP/SGP4

EPOCH          = 2025-11-04T12:00:02.998944
MEAN_MOTION    = 15.74100208
ECCENTRICITY   = .0000657
INCLINATION    = 53.1529
RA_OF_ASC_NODE = 269.5545
ARG_OF_PERICENTER = 60.1326
MEAN_ANOMALY   = 344.2692

EPHEMERIS_TYPE = 0
CLASSIFICATION_TYPE = U
NORAD_CAT_ID   = 66132
ELEMENT_SET_NO = 999
REV_AT_EPOCH   = 324
BSTAR          = .93798E-3
MEAN_MOTION_DOT = .138486E-2
MEAN_MOTION_DDOT = 0

CCSDS_OMM_VERS = 2.0
CREATION_DATE  = 
ORIGINATOR     = 

OBJECT_NAME    = STARLINK-35520
OBJECT_ID      = 2025-237V
CENTER_NAME    = EARTH
REF_FRAME      = TEME
TIME_SYSTEM    = UTC
MEAN_ELEMENT_THEORY = SGP/SGP4

EPOCH          = 2025-11-04T12:00:02.998944
MEAN_MOTION    = 15.74154381
ECCENTRICITY   = .0000548
INCLINATION    = 53.1537
RA_OF_ASC_NODE = 269.5498
ARG_OF_PERICENTER = 75.4018
MEAN_ANOMALY   = 330.9398

EPHEMERIS_TYPE = 0
CLASSIFICATION_TYPE = U
NORAD_CAT_ID   = 66133
ELEMENT_SET_NO = 999
REV_AT_EPOCH   = 333
BSTAR          = .50196E-3
MEAN_MOTION_DOT = .73416E-3
MEAN_MOTION_DDOT = 0

CCSDS_OMM_VERS = 2.0
CREATION_DATE  = 
ORIGINATOR     = 

OBJECT_NAME    = STARLINK-35525
OBJECT_ID      = 2025-237W
CENTER_NAME    = EARTH
REF_FRAME      = TEME
TIME_SYSTEM    = UTC
MEAN_ELEMENT_THEORY = SGP/SGP4

EPOCH          = 2025-11-04T12:00:02.998944
MEAN_MOTION    = 15.74167035
ECCENTRICITY   = .0001139
INCLINATION    = 53.1542
RA_OF_ASC_NODE = 269.5456
ARG_OF_PERICENTER = 93.7975
MEAN_ANOMALY   = 314.4726

EPHEMERIS_TYPE = 0
CLASSIFICATION_TYPE = U
NORAD_CAT_ID   = 66134
ELEMENT_SET_NO = 999
REV_AT_EPOCH   = 333
BSTAR          = .33198E-3
MEAN_MOTION_DOT = .48223E-3
MEAN_MOTION_DDOT = 0

