STARLINK-35628          
1 66123U 25237K   25308.50003471  .00006233  00000+0  46864-4 0  9990
2 66123  53.1530 269.5908 0001041 113.0081 274.1930 15.74168044  3331
STARLINK-35645          
1 66124U 25237L   25308.50003471  .00003935  00000+0  31168-4 0  9998
2 66124  53.1533 269.5865 0000935  84.1615 304.9604 15.74174016  3335
STARLINK-35649          
1 66125U 25237M   25308.50003471  .00025470  00000+0  17789-3 0  9999
2 66125  53.1529 269.5828 0001417  92.7075 298.3318 15.74160675  3335
STARLINK-35658          
1 66126U 25237N   25308.50003471  .00010846  00000+0  78338-4 0  9999
2 66126  53.1528 269.5776 0001241  88.2733 304.6845 15.74164070  3332
STARLINK-35629          
1 66127U 25237P   25308.50003471  .00073745  00000+0  50434-3 0  9993
2 66127  53.1534 269.5743 0000475  70.1070 324.7561 15.74146464  3331
STARLINK-35612          
1 66128U 25237Q   25308.50003471  .00011671  00000+0  83930-4 0  9992
2 66128  53.1532 269.5703 0000755 102.4880 294.2960 15.74172629  3331
STARLINK-35632          
1 66129U 25237R   25308.50003471  .00057582  00000+0  39539-3 0  9999
2 66129  53.1530 269.5659 0001144  88.8187 309.8791 15.74152948  3337
STARLINK-35637          
1 66130U 25237S   25308.50003471  .00127712  00000+0  86594-3 0  9997
2 66130  53.1532 269.5619 0001428 123.5457 277.0368 15.74113604  3331
STARLINK-35630          
1 66131U 25237T   25308.50003471  .00025585  00000+0  17857-3 0  9999
2 66131  53.1531 269.5579 0001318 107.2512 295.2728 15.74173529  3339
STARLINK-34412          
1 66132U 25237U   25308.50003471  .00138486  00000+0  93798-3 0  9993
2 66132  53.1529 269.5545 0000657  60.1326 344.2692 15.74100208  3244
STARLINK-35520          
1 66133U 25237V   25308.50003471  .00073416  00000+0  50196-3 0  9990
2 66133  53.1537 269.5498 0000548  75.4018 330.9398 15.74154381  3333
STARLINK-35525          
1 66134U 25237W   25308.50003471  .00048223  00000+0  33198-3 0  9992
2 66134  53.1542 269.5456 0001139  93.7975 314.4726 15.74167035  3338
